OBJECT_NAME,OBJECT_ID,EPOCH,MEAN_MOTION,ECCENTRICITY,INCLINATION,RA_OF_ASC_NODE,ARG_OF_PERICENTER,MEAN_ANOMALY,EPHEMERIS_TYPE,CLASSIFICATION_TYPE,NORAD_CAT_ID,ELEMENT_SET_NO,REV_AT_EPOCH,BSTAR,MEAN_MOTION_DOT,MEAN_MOTION_DDOT
INMARSAT GX5,2019-080B,2026-06-15T00:43:38.608608,1.00266238,.00020501,0.0337,358.1200,95.5433,191.5978,0,U,44801,999,676,0,.79E-6,0
JCSAT-18 (KACIFIC 1),2019-091A,2026-06-15T08:55:38.842176,1.00270311,.0000565,0.0189,247.5349,16.9402,283.0837,0,U,44868,999,2399,0,-.198E-5,0
ELEKTRO-L 3,2019-095A,2026-06-15T11:42:41.262912,1.00271449,.000095,0.2519,81.5030,352.2937,81.6023,0,U,44903,999,2369,0,-.94E-6,0
SHIJIAN-20 (SJ-20),2019-097A,2026-06-15T06:25:50.124864,1.00277558,.001388,4.9142,75.0856,55.0931,274.7312,0,U,44910,999,2367,0,.135E-5,0
TJS-5,2020-002A,2026-06-15T10:09:03.310272,1.00269486,.0007341,0.0166,303.4413,103.0860,116.9474,0,U,44978,999,2369,0,-.339E-5,0
GSAT-30,2020-005A,2026-06-15T11:44:41.072064,1.00271184,.000333,0.0695,97.3405,347.2600,78.3310,0,U,45026,999,2349,0,-.162E-5,0
EUTELSAT KONNECT,2020-005B,2026-06-15T00:43:38.608608,1.00271655,.00015245,0.0725,97.8075,122.8326,60.8276,0,U,45027,999,2431,0,.55E-6,0
JCSAT-17,2020-013A,2026-06-15T10:17:05.100864,1.00270633,.000233,5.3924,356.8567,85.0136,112.1338,0,U,45245,999,2321,0,-.314E-5,0
GEO-KOMPSAT-2B,2020-013B,2026-06-15T11:57:30.368160,1.00271438,.0000767,0.0125,299.6413,329.4225,302.3628,0,U,45246,999,2326,0,-.341E-5,0
BEIDOU-3 G2,2020-017A,2026-06-15T11:43:48.655776,1.00272146,.0002047,2.8599,47.3004,32.2706,80.2316,0,U,45344,999,2324,0,-.14E-5,0
AEHF-6 (USA 298),2020-022B,2026-06-15T12:00:07.616160,1.00271873,.0043195,2.5518,301.1331,17.0132,263.4455,0,U,45465,999,2299,0,-.293E-5,0
BEIDOU-3 G3,2020-040A,2026-06-15T11:52:18.820992,1.00267338,.000242,2.4422,67.4374,335.4467,149.4992,0,U,45807,999,2205,0,-.352E-5,0
APSTAR-6D,2020-045A,2026-06-14T17:09:58.191840,1.00270603,.00020997,0.0526,103.4417,344.7575,206.3375,0,U,45863,999,2183,0,-.311E-5,0
KOREASAT 116,2020-048A,2026-06-15T10:11:25.580832,1.00268441,.0000794,0.0284,290.0840,188.4577,54.2328,0,U,45920,999,2162,0,-.359E-5,0
EXPRESS 103,2020-053A,2026-06-15T08:23:09.130272,1.00269232,.0000319,0.0123,291.3550,54.6847,139.8773,0,U,45985,999,2163,0,-.277E-5,0
EXPRESS 80,2020-053B,2026-06-15T01:06:38.812320,1.00271308,.0001691,0.0218,286.9346,257.6133,175.4505,0,U,45986,999,2161,0,-.131E-5,0
BSAT-4B,2020-056A,2026-06-13T11:57:51.918912,1.00268721,.00037461,0.0192,98.5475,17.2668,75.2961,0,U,46112,999,2135,0,0,0
MEV-2,2020-056B,2026-06-15T09:37:58.788768,1.00262785,.0000258,0.0119,315.6890,52.7483,38.7301,0,U,46113,999,8053,0,-.1E-6,0
GALAXY 30 (G-30),2020-056C,2026-06-15T11:22:38.644896,1.00270776,.0002078,0.0176,9.2830,75.6246,224.5068,0,U,46114,999,2127,0,.4E-6,0
GAOFEN-13 01,2020-071A,2026-06-15T10:11:48.047424,1.00271376,.0041395,0.5171,84.8642,123.7260,326.2887,0,U,46610,999,2090,0,-.36E-5,0
TIANTONG-1 2,2020-082A,2026-06-15T14:03:31.753152,1.00270058,.0000941,0.7923,327.2961,100.8963,171.4971,0,U,46916,999,2063,0,-.353E-5,0
LUCAS (JDRS-1),2020-089A,2026-06-15T11:46:55.856064,1.00270678,.0002033,0.0181,333.7229,99.6645,97.9231,0,U,47202,999,2040,0,-.233E-5,0
SXM-7,2020-096A,2026-06-14T22:58:09.309216,1.00271395,.00036508,0.0312,98.3690,27.4675,36.8000,0,U,47240,999,742,0,-.2E-5,0
CMS-01,2020-099A,2026-06-15T11:44:41.072064,1.00270814,.0003791,0.0943,95.3169,180.7785,246.8409,0,U,47256,999,2018,0,-.162E-5,0
TURKSAT 5A,2021-001A,2026-06-15T11:29:49.996032,1.00269931,.0000162,0.0154,49.5925,228.7527,188.8086,0,U,47306,999,1995,0,.157E-5,0
TIANTONG-1 3,2021-003A,2026-06-15T11:44:18.608064,1.00270679,.0003038,1.7585,339.1791,111.3690,70.8448,0,U,47321,999,1994,0,-.151E-5,0
TJS-6,2021-010A,2026-06-15T12:11:49.933248,1.00268899,.0002927,0.2560,264.3371,224.6278,136.2834,0,U,47613,999,1978,0,.45E-6,0
SBIRS GEO-5 (USA 315),2021-042A,2026-06-15T10:05:03.691968,1.00270839,.0001242,5.1059,329.1160,121.4503,58.2154,0,U,48618,999,1875,0,-.264E-5,0
FENGYUN 4B,2021-047A,2026-06-15T10:08:10.893984,1.00277373,.0005919,0.1488,77.3068,275.1190,167.9173,0,U,48808,999,1855,0,-.327E-5,0
SXM-8,2021-049A,2026-06-15T07:31:21.596160,1.00271311,.000499,0.0179,12.6016,18.1510,260.5396,0,U,48838,999,1856,0,-.202E-5,0
TIANLIAN 1-05,2021-063A,2026-06-15T06:17:50.890848,1.00271276,.0000497,1.5891,80.7203,320.8606,333.2346,0,U,49011,999,1805,0,.11E-5,0
STAR ONE D2,2021-069A,2026-06-15T04:10:20.243424,1.00270847,.00020579,0.0162,337.8384,134.2817,143.8251,0,U,49055,999,1792,0,0,0
