INMARSAT GX5            
1 44801U 19080B   26166.03030797  .00000079  00000+0  00000+0 0  9999
2 44801   0.0337 358.1200 0002050  95.5433 191.5978  1.00266238  6764
JCSAT-18 (KACIFIC 1)    
1 44868U 19091A   26166.37197734 -.00000198  00000+0  00000+0 0  9999
2 44868   0.0189 247.5349 0000565  16.9402 283.0837  1.00270311 23991
ELEKTRO-L 3             
1 44903U 19095A   26166.48797758 -.00000094  00000+0  00000+0 0  9992
2 44903   0.2519  81.5030 0000950 352.2937  81.6023  1.00271449 23699
SHIJIAN-20 (SJ-20)      
1 44910U 19097A   26166.26794126  .00000135  00000+0  00000+0 0  9999
2 44910   4.9142  75.0856 0013880  55.0931 274.7312  1.00277558 23673
TJS-5                   
1 44978U 20002A   26166.42295498 -.00000339  00000+0  00000+0 0  9994
2 44978   0.0166 303.4413 0007341 103.0860 116.9474  1.00269486 23696
GSAT-30                 
1 45026U 20005A   26166.48936426 -.00000162  00000+0  00000+0 0  9995
2 45026   0.0695  97.3405 0003330 347.2600  78.3310  1.00271184 23492
EUTELSAT KONNECT        
1 45027U 20005B   26166.03030797  .00000055  00000+0  00000+0 0  9993
2 45027   0.0725  97.8075 0001524 122.8326  60.8276  1.00271655 24312
JCSAT-17                
1 45245U 20013A   26166.42853126 -.00000314  00000+0  00000+0 0  9995
2 45245   5.3924 356.8567 0002330  85.0136 112.1338  1.00270633 23215
GEO-KOMPSAT-2B          
1 45246U 20013B   26166.49826815 -.00000341  00000+0  00000+0 0  9998
2 45246   0.0125 299.6413 0000767 329.4225 302.3628  1.00271438 23265
BEIDOU-3 G2             
1 45344U 20017A   26166.48875759 -.00000140  00000+0  00000+0 0  9998
2 45344   2.8599  47.3004 0002047  32.2706  80.2316  1.00272146 23240
AEHF-6 (USA 298)        
1 45465U 20022B   26166.50008815 -.00000293  00000+0  00000+0 0  9991
2 45465   2.5518 301.1331 0043195  17.0132 263.4455  1.00271873 22995
BEIDOU-3 G3             
1 45807U 20040A   26166.49466228 -.00000352  00000+0  00000+0 0  9991
2 45807   2.4422  67.4374 0002420 335.4467 149.4992  1.00267338 22058
APSTAR-6D               
1 45863U 20045A   26165.71525685 -.00000311  00000+0  00000+0 0  9990
2 45863   0.0526 103.4417 0002099 344.7575 206.3375  1.00270603 21835
KOREASAT 116            
1 45920U 20048A   26166.42460163 -.00000359  00000+0  00000+0 0  9997
2 45920   0.0284 290.0840 0000794 188.4577  54.2328  1.00268441 21620
EXPRESS 103             
1 45985U 20053A   26166.34941123 -.00000277  00000+0  00000+0 0  9994
2 45985   0.0123 291.3550 0000319  54.6847 139.8773  1.00269232 21636
EXPRESS 80              
1 45986U 20053B   26166.04628255 -.00000131  00000+0  00000+0 0  9999
2 45986   0.0218 286.9346 0001691 257.6133 175.4505  1.00271308 21616
BSAT-4B                 
1 46112U 20056A   26164.49851758  .00000000  00000+0  00000+0 0  9991
2 46112   0.0192  98.5475 0003746  17.2668  75.2961  1.00268721 21354
MEV-2                   
1 46113U 20056B   26166.40137487 -.00000010  00000+0  00000+0 0  9993
2 46113   0.0119 315.6890 0000258  52.7483  38.7301  1.00262785 80533
GALAXY 30 (G-30)        
1 46114U 20056C   26166.47405839  .00000040  00000+0  00000+0 0  9992
2 46114   0.0176   9.2830 0002078  75.6246 224.5068  1.00270776 21270
GAOFEN-13 01            
1 46610U 20071A   26166.42486166 -.00000360  00000+0  00000+0 0  9993
2 46610   0.5171  84.8642 0041395 123.7260 326.2887  1.00271376 20902
TIANTONG-1 2            
1 46916U 20082A   26166.58578418 -.00000353  00000+0  00000+0 0  9995
2 46916   0.7923 327.2961 0000941 100.8963 171.4971  1.00270058 20634
LUCAS (JDRS-1)          
1 47202U 20089A   26166.49092426 -.00000233  00000+0  00000+0 0  9998
2 47202   0.0181 333.7229 0002033  99.6645  97.9231  1.00270678 20401
SXM-7                   
1 47240U 20096A   26165.95705219 -.00000200  00000+0  00000+0 0  9993
2 47240   0.0312  98.3690 0003650  27.4675  36.8000  1.00271395  7423
CMS-01                  
1 47256U 20099A   26166.48936426 -.00000162  00000+0  00000+0 0  9995
2 47256   0.0943  95.3169 0003791 180.7785 246.8409  1.00270814 20188
TURKSAT 5A              
1 47306U 21001A   26166.47905088  .00000157  00000+0  00000+0 0  9997
2 47306   0.0154  49.5925 0000162 228.7527 188.8086  1.00269931 19952
TIANTONG-1 3            
1 47321U 21003A   26166.48910426 -.00000151  00000+0  00000+0 0  9994
2 47321   1.7585 339.1791 0003038 111.3690  70.8448  1.00270679 19949
TJS-6                   
1 47613U 21010A   26166.50821682  .00000045  00000+0  00000+0 0  9995
2 47613   0.2560 264.3371 0002927 224.6278 136.2834  1.00268899 19788
SBIRS GEO-5 (USA 315)   
1 48618U 21042A   26166.42018162 -.00000264  00000+0  00000+0 0  9992
2 48618   5.1059 329.1160 0001242 121.4503  58.2154  1.00270839 18752
FENGYUN 4B              
1 48808U 21047A   26166.42234831 -.00000327  00000+0  00000+0 0  9991
2 48808   0.1488  77.3068 0005919 275.1190 167.9173  1.00277373 18554
SXM-8                   
1 48838U 21049A   26166.31344440 -.00000202  00000+0  00000+0 0  9994
2 48838   0.0179  12.6016 0004990  18.1510 260.5396  1.00271311 18561
TIANLIAN 1-05           
1 49011U 21063A   26166.26239457  .00000110  00000+0  00000+0 0  9996
2 49011   1.5891  80.7203 0000497 320.8606 333.2346  1.00271276 18050
STAR ONE D2             
1 49055U 21069A   26166.17384541  .00000000  00000+0  00000+0 0  9993
2 49055   0.0162 337.8384 0002057 134.2817 143.8251  1.00270847 17922
